[{"OBJECT_NAME":"STARLINK-32913","OBJECT_ID":"2025-037X","EPOCH":"2026-03-09T21:21:27.156096","MEAN_MOTION":14.98330525,"ECCENTRICITY":0.0002619,"INCLINATION":70.0039,"RA_OF_ASC_NODE":353.8791,"ARG_OF_PERICENTER":266.0186,"MEAN_ANOMALY":94.0674,"EPHEMERIS_TYPE":0,"CLASSIFICATION_TYPE":"U","NORAD_CAT_ID":63098,"ELEMENT_SET_NO":999,"REV_AT_EPOCH":5864,"BSTAR":0.00067472314,"MEAN_MOTION_DOT":7.967e-5,"MEAN_MOTION_DDOT":0},{"OBJECT_NAME":"DELTA 1 R\/B(1)","OBJECT_ID":"1978-039B","EPOCH":"2026-03-09T01:41:04.031520","MEAN_MOTION":13.07548501,"ECCENTRICITY":0.08739214,"INCLINATION":28.2291,"RA_OF_ASC_NODE":154.8062,"ARG_OF_PERICENTER":200.7275,"MEAN_ANOMALY":155.5602,"EPHEMERIS_TYPE":0,"CLASSIFICATION_TYPE":"U","NORAD_CAT_ID":10793,"ELEMENT_SET_NO":999,"REV_AT_EPOCH":28068,"BSTAR":0.00037803438,"MEAN_MOTION_DOT":1.016e-5,"MEAN_MOTION_DDOT":0}]
